LUDI TANCE 1-01A (L-SA*)
1 51284U 22007A   26162.60130456  .00000532  00000+0  63269-4 0  9992
2 51284  97.8098 170.1006 0001604  91.1538 268.9862 14.88415223237647
LUDI TANCE 1-01B (L-SA*)
1 51822U 22018A   26162.63490171  .00000573  00000+0  67718-4 0  9996
2 51822  97.8103 170.1299 0001587  91.0334 269.1065 14.88411512232885
2022-023F               
1 51951U 22023F   26162.61084340  .00013497  00000+0  53993-3 0  9998
2 51951  63.4451 292.4381 0129330 342.6311  17.0396 15.17938903236860
MERIDIAN 10             
1 52145U 22030A   26161.98864150  .00000244  00000+0  00000+0 0  9999
2 52145  62.6774 141.4643 6781991 272.8584  17.6697  2.00614319 30905
OMNI-L1                 
1 52157U 22033A   26162.44272935  .00001671  00000+0  21338-3 0  9997
2 52157  97.8395 241.7314 0003984 313.2112  46.8769 14.82727675226607
ENMAP                   
1 52159U 22033C   26162.60274103  .00000917  00000+0  14383-3 0  9990
2 52159  97.9790 244.9320 0001416  84.8913 275.2458 14.74985213225831
ARCSAT-1                
1 52161U 22033E   26162.52178877  .00012503  00000+0  19844-3 0  9996
2 52161  97.2754 254.7111 0004373 201.0351 159.0723 15.53490793234823
GLOBAL-18               
1 52196U 22034B   26162.63133447  .00022262  00000+0  45571-3 0  9990
2 52196  52.9819 283.1883 0003087 249.2112 110.8563 15.46043673236106
GAOFEN-3 03             
1 52200U 22035A   26162.61005141  .00000017  00000+0  18274-4 0  9999
2 52200  98.4065 171.2712 0001175  99.8628 260.2695 14.42214395220043
DAQI-1                  
1 52257U 22039A   26162.65392410  .00000088  00000+0  29159-4 0  9999
2 52257  98.1477 101.6199 0002287 280.7460  79.3481 14.57673827221133
BRO-6                   
1 52422U 22047AE  26162.58704535  .00033745  00000+0  59826-3 0  9998
2 52422  97.3400 253.5363 0005496  97.2520 262.9356 15.50168565230286
JILIN-1 GAOFEN 3D27     
1 52444U 22048B   26162.56313114  .00112038  00000+0  77924-3 0  9992
2 52444  97.5705 275.9947 0001560  72.3332 287.8102 15.74055965228590
JILIN-1 GAOFEN 3D28     
1 52445U 22048C   26162.57295213  .00131918  00000+0  80936-3 0  9998
2 52445  97.5640 276.1333 0001100 151.6853 208.4472 15.76892760228649
VIGORIDE-3              
1 52760U 22057AE  26162.45101312  .00005254  00000+0  19966-3 0  9999
2 52760  97.6590 302.2740 0009318 138.1149 222.0804 15.27220077224283
ION SCV-006             
1 52761U 22057AF  26162.66067381  .00012349  00000+0  26089-3 0  9997
2 52761  97.6086 311.0187 0018250 132.3206 227.9592 15.45153445225263
SHERPA-AC1              
1 52763U 22057AH  26162.66058431  .00007059  00000+0  20240-3 0  9990
2 52763  97.6674 311.6575 0008924 110.0685 250.1519 15.36189019224853
OMNI-L2                 
1 52771U 22057AR  26162.44859145  .00001120  00000+0  14940-3 0  9999
2 52771  97.4717 225.1925 0006290 357.5122   2.6059 14.81355158219541
STEP CUBE LAB-II        
1 52897U 22065D   26162.66557671  .00000781  00000+0  16070-3 0  9998
2 52897  98.2218 306.5848 0009630  48.1636 312.0386 14.63295242210692
RANDEV                  
1 52898U 22065E   26162.66811250  .00000770  00000+0  15723-3 0  9997
2 52898  98.2205 306.9365 0008947  48.8593 311.3380 14.63682154210447
SNUGLITE-II             
1 52899U 22065F   26162.63292372  .00000834  00000+0  16702-3 0  9992
2 52899  98.2195 307.4736 0008328  48.8269 311.3650 14.64337670210189
MIMAN                   
1 52900U 22065G   26162.36715192  .00000446  00000+0  98803-4 0  9997
2 52900  98.2253 304.8791 0008545  51.2785 308.9179 14.61837820209591
STARLINK-4362           
1 53043U 22077A   26162.48376012  .00005581  00000+0  39078-3 0  9999
2 53043  97.3732 341.6900 0002271  73.8280 286.3197 15.05620774215024
LARES-2                 
1 53105U 22080A   26162.37796583 -.00000014  00000+0  00000+0 0  9995
2 53105  70.1631 307.3215 0005423 335.1501  24.8749  6.38965132 91295
GREENCUBE (IO-117)      
1 53109U 22080E   26152.46502029 -.00000003  00000+0  00000+0 0  9996
2 53109  70.1435 303.7143 0008869 293.3663  66.6064  6.42583280 91055
STARLINK-4410           
1 53204U 22084R   26162.66668981  .00332778  00000+0  11529-1 0  9995
2 53204  97.6022 223.6300 0001599  82.5708 352.4535 15.28381410  5782
COSMOS 2558             
1 53323U 22089A   26161.53671874  .00091569  00000+0  64540-3 0  9995
2 53323  97.2255 265.3368 0000727 208.2921 151.8304 15.73809208216780
TECMS                   
1 53346U 22090A   26162.63416918  .00003131  00000+0  14273-3 0  9996
2 53346  97.3143 230.8998 0002860 194.5216 165.5938 15.21368521213965
