OBJECT_NAME,OBJECT_ID,EPOCH,MEAN_MOTION,ECCENTRICITY,INCLINATION,RA_OF_ASC_NODE,ARG_OF_PERICENTER,MEAN_ANOMALY,EPHEMERIS_TYPE,CLASSIFICATION_TYPE,NORAD_CAT_ID,ELEMENT_SET_NO,REV_AT_EPOCH,BSTAR,MEAN_MOTION_DOT,MEAN_MOTION_DDOT
LUDI TANCE 1-01A (L-SAR 01A),2022-007A,2026-06-11T14:25:52.713984,14.88415223,.0001604,97.8098,170.1006,91.1538,268.9862,0,U,51284,999,23764,.63269118E-4,.532E-5,0
LUDI TANCE 1-01B (L-SAR 01B),2022-018A,2026-06-11T15:14:15.507744,14.88411512,.00015872,97.8103,170.1299,91.0334,269.1065,0,U,51822,999,23288,.67718018E-4,.573E-5,0
2022-023F,2022-023F,2026-06-11T14:39:36.869760,15.17938903,.01293302,63.4451,292.4381,342.6311,17.0396,0,U,51951,999,23686,.53993209E-3,.13497E-3,0
MERIDIAN 10,2022-030A,2026-06-10T23:43:38.625600,2.00614319,.67819912,62.6774,141.4643,272.8584,17.6697,0,U,52145,999,3090,0,.244E-5,0
OMNI-L1,2022-033A,2026-06-11T10:37:31.815840,14.82727675,.00039843,97.8395,241.7314,313.2112,46.8769,0,U,52157,999,22660,.2133798E-3,.1671E-4,0
ENMAP,2022-033C,2026-06-11T14:27:56.824992,14.74985213,.00014166,97.9790,244.9320,84.8913,275.2458,0,U,52159,999,22583,.14382982E-3,.917E-5,0
ARCSAT-1,2022-033E,2026-06-11T12:31:22.549728,15.53490793,.00043738,97.2754,254.7111,201.0351,159.0723,0,U,52161,999,23482,.19844419E-3,.12503E-3,0
GLOBAL-18,2022-034B,2026-06-11T15:09:07.298208,15.46043673,.00030875,52.9819,283.1883,249.2112,110.8563,0,U,52196,999,23610,.45571105E-3,.22262E-3,0
GAOFEN-3 03,2022-035A,2026-06-11T14:38:28.441824,14.42214395,.00011759,98.4065,171.2712,99.8628,260.2695,0,U,52200,999,22004,.1827373E-4,.17E-6,0
DAQI-1,2022-039A,2026-06-11T15:41:39.042240,14.57673827,.00022879,98.1477,101.6199,280.7460,79.3481,0,U,52257,999,22113,.29158849E-4,.88E-6,0
BRO-6,2022-047AE,2026-06-11T14:05:20.718240,15.50168565,.00054965,97.3400,253.5363,97.2520,262.9356,0,U,52422,999,23028,.59826295E-3,.33745E-3,0
JILIN-1 GAOFEN 3D27,2022-048B,2026-06-11T13:30:54.530496,15.74055965,.00015604,97.5705,275.9947,72.3332,287.8102,0,U,52444,999,22859,.77923504E-3,.112038E-2,0
JILIN-1 GAOFEN 3D28,2022-048C,2026-06-11T13:45:03.064032,15.76892760,.00011008,97.5640,276.1333,151.6853,208.4472,0,U,52445,999,22864,.80935504E-3,.131918E-2,0
VIGORIDE-3,2022-057AE,2026-06-11T10:49:27.533568,15.27220077,.00093187,97.6590,302.2740,138.1149,222.0804,0,U,52760,999,22428,.19965958E-3,.5254E-4,0
ION SCV-006,2022-057AF,2026-06-11T15:51:22.217184,15.45153445,.00182508,97.6086,311.0187,132.3206,227.9592,0,U,52761,999,22526,.26088529E-3,.12349E-3,0
SHERPA-AC1,2022-057AH,2026-06-11T15:51:14.484384,15.36189019,.00089247,97.6674,311.6575,110.0685,250.1519,0,U,52763,999,22485,.20240376E-3,.7059E-4,0
OMNI-L2,2022-057AR,2026-06-11T10:45:58.301280,14.81355158,.00062907,97.4717,225.1925,357.5122,2.6059,0,U,52771,999,21954,.14940144E-3,.112E-4,0
STEP CUBE LAB-II,2022-065D,2026-06-11T15:58:25.827744,14.63295242,.00096302,98.2218,306.5848,48.1636,312.0386,0,U,52897,999,21069,.1607024E-3,.781E-5,0
RANDEV,2022-065E,2026-06-11T16:02:04.920000,14.63682154,.00089477,98.2205,306.9365,48.8593,311.3380,0,U,52898,999,21044,.1572253E-3,.77E-5,0
SNUGLITE-II,2022-065F,2026-06-11T15:11:24.609408,14.64337670,.00083288,98.2195,307.4736,48.8269,311.3650,0,U,52899,999,21018,.16702197E-3,.834E-5,0
MIMAN,2022-065G,2026-06-11T08:48:41.925888,14.61837820,.00085455,98.2253,304.8791,51.2785,308.9179,0,U,52900,999,20959,.9880262E-4,.446E-5,0
STARLINK-4362,2022-077A,2026-06-11T11:36:36.874368,15.05620774,.00022711,97.3732,341.6900,73.8280,286.3197,0,U,53043,999,21502,.3907803E-3,.5581E-4,0
LARES-2,2022-080A,2026-06-11T09:04:16.247712,6.38965132,.00054235,70.1631,307.3215,335.1501,24.8749,0,U,53105,999,9129,0,-.14E-6,0
GREENCUBE (IO-117),2022-080E,2026-06-01T11:09:37.753056,6.42583280,.00088692,70.1435,303.7143,293.3663,66.6064,0,U,53109,999,9105,0,-.3E-7,0
STARLINK-4410,2022-084R,2026-06-11T16:00:01.999584,15.28381410,.00015994,97.6022,223.6300,82.5708,352.4535,0,U,53204,999,578,.11529033E-1,.332778E-2,0
COSMOS 2558,2022-089A,2026-06-10T12:52:52.499136,15.73809208,.0000727,97.2255,265.3368,208.2921,151.8304,0,U,53323,999,21678,.6454E-3,.91569E-3,0
TECMS,2022-090A,2026-06-11T15:13:12.217152,15.21368521,.00028609,97.3143,230.8998,194.5216,165.5938,0,U,53346,999,21396,.14272532E-3,.3131E-4,0
